{"fetched_at":"2026-07-13T18:16:31.793Z","source":"https://celestrak.org/NORAD/elements/gp.php?GROUP=oneweb&FORMAT=JSON","constellation":"oneweb","records":[{"OBJECT_NAME":"ONEWEB-0411","OBJECT_ID":"2022-012B","EPOCH":"2026-07-12T23:23:50.640288","CLASSIFICATION_TYPE":"U","MEAN_MOTION":13.10378041,"ECCENTRICITY":0.00022553,"INCLINATION":87.8823,"RA_OF_ASC_NODE":31.1287,"ARG_OF_PERICENTER":96.1829,"MEAN_ANOMALY":263.9556,"EPHEMERIS_TYPE":0,"NORAD_CAT_ID":51623,"ELEMENT_SET_NO":999,"REV_AT_EPOCH":21266,"BSTAR":-0.00064056039,"MEAN_MOTION_DOT":-0.00000211,"MEAN_MOTION_DDOT":0},{"OBJECT_NAME":"ONEWEB-0415","OBJECT_ID":"2022-012C","EPOCH":"2026-07-12T14:09:10.328832","CLASSIFICATION_TYPE":"U","MEAN_MOTION":13.10377986,"ECCENTRICITY":0.0002134,"INCLINATION":87.8822,"RA_OF_ASC_NODE":31.2038,"ARG_OF_PERICENTER":87.5344,"MEAN_ANOMALY":272.6027,"EPHEMERIS_TYPE":0,"NORAD_CAT_ID":51624,"ELEMENT_SET_NO":999,"REV_AT_EPOCH":21261,"BSTAR":-0.00092666,"MEAN_MOTION_DOT":-0.00000311,"MEAN_MOTION_DDOT":0},{"OBJECT_NAME":"ONEWEB-0416","OBJECT_ID":"2022-012D","EPOCH":"2026-07-12T23:36:04.427712","CLASSIFICATION_TYPE":"U","MEAN_MOTION":13.10377613,"ECCENTRICITY":0.00021987,"INCLINATION":87.8815,"RA_OF_ASC_NODE":31.142,"ARG_OF_PERICENTER":84.3252,"MEAN_ANOMALY":275.8126,"EPHEMERIS_TYPE":0,"NORAD_CAT_ID":51625,"ELEMENT_SET_NO":999,"REV_AT_EPOCH":21270,"BSTAR":0.00059616314,"MEAN_MOTION_DOT":0.00000221,"MEAN_MOTION_DDOT":0},{"OBJECT_NAME":"ONEWEB-0422","OBJECT_ID":"2022-012E","EPOCH":"2026-07-12T21:27:06.048000","CLASSIFICATION_TYPE":"U","MEAN_MOTION":13.17650849,"ECCENTRICITY":0.00017781,"INCLINATION":87.9148,"RA_OF_ASC_NODE":0.7462,"ARG_OF_PERICENTER":114.5254,"MEAN_ANOMALY":245.6063,"EPHEMERIS_TYPE":0,"NORAD_CAT_ID":51626,"ELEMENT_SET_NO":999,"REV_AT_EPOCH":21719,"BSTAR":0.00011998377,"MEAN_MOTION_DOT":5.9e-7,"MEAN_MOTION_DDOT":0},{"OBJECT_NAME":"ONEWEB-0423","OBJECT_ID":"2022-012F","EPOCH":"2026-07-12T21:17:23.216064","CLASSIFICATION_TYPE":"U","MEAN_MOTION":13.17647966,"ECCENTRICITY":0.00018624,"INCLINATION":87.9154,"RA_OF_ASC_NODE":0.7509,"ARG_OF_PERICENTER":89.6306,"MEAN_ANOMALY":270.5039,"EPHEMERIS_TYPE":0,"NORAD_CAT_ID":51627,"ELEMENT_SET_NO":999,"REV_AT_EPOCH":21708,"BSTAR":0.00011772354,"MEAN_MOTION_DOT":5.9e-7,"MEAN_MOTION_DDOT":0},{"OBJECT_NAME":"ONEWEB-0425","OBJECT_ID":"2022-012G","EPOCH":"2026-07-12T22:00:47.939328","CLASSIFICATION_TYPE":"U","MEAN_MOTION":13.10376101,"ECCENTRICITY":0.00018326,"INCLINATION":87.8815,"RA_OF_ASC_NODE":31.1389,"ARG_OF_PERICENTER":74.399,"MEAN_ANOMALY":285.7339,"EPHEMERIS_TYPE":0,"NORAD_CAT_ID":51628,"ELEMENT_SET_NO":999,"REV_AT_EPOCH":21269,"BSTAR":0.0016754512,"MEAN_MOTION_DOT":0.00000598,"MEAN_MOTION_DDOT":0},{"OBJECT_NAME":"ONEWEB-0428","OBJECT_ID":"2022-012H","EPOCH":"2026-07-12T14:11:37.221792","CLASSIFICATION_TYPE":"U","MEAN_MOTION":13.10378417,"ECCENTRICITY":0.000184,"INCLINATION":87.881,"RA_OF_ASC_NODE":31.2103,"ARG_OF_PERICENTER":85.6892,"MEAN_ANOMALY":274.4445,"EPHEMERIS_TYPE":0,"NORAD_CAT_ID":51629,"ELEMENT_SET_NO":999,"REV_AT_EPOCH":21261,"BSTAR":-0.00068111,"MEAN_MOTION_DOT":-0.00000225,"MEAN_MOTION_DDOT":0},{"OBJECT_NAME":"ONEWEB-0431","OBJECT_ID":"2022-012J","EPOCH":"2026-07-12T22:37:11.573184","CLASSIFICATION_TYPE":"U","MEAN_MOTION":13.10369311,"ECCENTRICITY":0.00023134,"INCLINATION":87.8815,"RA_OF_ASC_NODE":31.134,"ARG_OF_PERICENTER":98.8553,"MEAN_ANOMALY":261.2837,"EPHEMERIS_TYPE":0,"NORAD_CAT_ID":51630,"ELEMENT_SET_NO":999,"REV_AT_EPOCH":21271,"BSTAR":-3.76577e-7,"MEAN_MOTION_DOT":1.3e-7,"MEAN_MOTION_DDOT":0},{"OBJECT_NAME":"ONEWEB-0434","OBJECT_ID":"2022-012K","EPOCH":"2026-07-12T23:55:50.396448","CLASSIFICATION_TYPE":"U","MEAN_MOTION":13.10374936,"ECCENTRICITY":0.00016202,"INCLINATION":87.8821,"RA_OF_ASC_NODE":31.1486,"ARG_OF_PERICENTER":66.8355,"MEAN_ANOMALY":293.2943,"EPHEMERIS_TYPE":0,"NORAD_CAT_ID":51631,"ELEMENT_SET_NO":999,"REV_AT_EPOCH":21270,"BSTAR":0.0020058068,"MEAN_MOTION_DOT":0.00000713,"MEAN_MOTION_DDOT":0},{"OBJECT_NAME":"ONEWEB-0435","OBJECT_ID":"2022-012L","EPOCH":"2026-07-12T22:15:26.995392","CLASSIFICATION_TYPE":"U","MEAN_MOTION":13.10374667,"ECCENTRICITY":0.0001915,"INCLINATION":87.882,"RA_OF_ASC_NODE":31.1482,"ARG_OF_PERICENTER":100.5101,"MEAN_ANOMALY":259.6243,"EPHEMERIS_TYPE":0,"NORAD_CAT_ID":51632,"ELEMENT_SET_NO":999,"REV_AT_EPOCH":21268,"BSTAR":0.0015335659,"MEAN_MOTION_DOT":0.00000548,"MEAN_MOTION_DDOT":0},{"OBJECT_NAME":"ONEWEB-0436","OBJECT_ID":"2022-012M","EPOCH":"2026-07-12T21:05:13.674336","CLASSIFICATION_TYPE":"U","MEAN_MOTION":13.17647429,"ECCENTRICITY":0.00019049,"INCLINATION":87.915,"RA_OF_ASC_NODE":0.7359,"ARG_OF_PERICENTER":99.077,"MEAN_ANOMALY":261.0578,"EPHEMERIS_TYPE":0,"NORAD_CAT_ID":51633,"ELEMENT_SET_NO":999,"REV_AT_EPOCH":21706,"BSTAR":0.000020551107,"MEAN_MOTION_DOT":2.1e-7,"MEAN_MOTION_DDOT":0},{"OBJECT_NAME":"ONEWEB-0438","OBJECT_ID":"2022-012N","EPOCH":"2026-07-12T23:43:23.359584","CLASSIFICATION_TYPE":"U","MEAN_MOTION":13.10377986,"ECCENTRICITY":0.0001856,"INCLINATION":87.8813,"RA_OF_ASC_NODE":31.1388,"ARG_OF_PERICENTER":79.083,"MEAN_ANOMALY":281.0506,"EPHEMERIS_TYPE":0,"NORAD_CAT_ID":51634,"ELEMENT_SET_NO":999,"REV_AT_EPOCH":21272,"BSTAR":0.0012451268,"MEAN_MOTION_DOT":0.00000447,"MEAN_MOTION_DDOT":0},{"OBJECT_NAME":"ONEWEB-0439","OBJECT_ID":"2022-012P","EPOCH":"2026-07-12T23:48:17.572320","CLASSIFICATION_TYPE":"U","MEAN_MOTION":13.10376225,"ECCENTRICITY":0.0001763,"INCLINATION":87.8816,"RA_OF_ASC_NODE":31.1249,"ARG_OF_PERICENTER":85.38,"MEAN_ANOMALY":274.7528,"EPHEMERIS_TYPE":0,"NORAD_CAT_ID":51635,"ELEMENT_SET_NO":999,"REV_AT_EPOCH":21270,"BSTAR":0.0016246491,"MEAN_MOTION_DOT":0.0000058,"MEAN_MOTION_DDOT":0},{"OBJECT_NAME":"ONEWEB-0442","OBJECT_ID":"2022-012Q","EPOCH":"2026-07-12T20:54:19.113984","CLASSIFICATION_TYPE":"U","MEAN_MOTION":13.17650864,"ECCENTRICITY":0.00018244,"INCLINATION":87.914,"RA_OF_ASC_NODE":0.7678,"ARG_OF_PERICENTER":73.0567,"MEAN_ANOMALY":287.0765,"EPHEMERIS_TYPE":0,"NORAD_CAT_ID":51636,"ELEMENT_SET_NO":999,"REV_AT_EPOCH":21705,"BSTAR":-0.000016204539,"MEAN_MOTION_DOT":7e-8,"MEAN_MOTION_DDOT":0},{"OBJECT_NAME":"ONEWEB-0443","OBJECT_ID":"2022-012R","EPOCH":"2026-07-12T21:22:14.163744","CLASSIFICATION_TYPE":"U","MEAN_MOTION":13.17648621,"ECCENTRICITY":0.00014689,"INCLINATION":87.9139,"RA_OF_ASC_NODE":0.7653,"ARG_OF_PERICENTER":94.0011,"MEAN_ANOMALY":266.1289,"EPHEMERIS_TYPE":0,"NORAD_CAT_ID":51637,"ELEMENT_SET_NO":999,"REV_AT_EPOCH":21710,"BSTAR":-0.00045372956,"MEAN_MOTION_DOT":-0.00000163,"MEAN_MOTION_DDOT":0},{"OBJECT_NAME":"ONEWEB-0444","OBJECT_ID":"2022-012S","EPOCH":"2026-07-12T23:33:36.605952","CLASSIFICATION_TYPE":"U","MEAN_MOTION":13.10378665,"ECCENTRICITY":0.00015972,"INCLINATION":87.882,"RA_OF_ASC_NODE":31.1259,"ARG_OF_PERICENTER":88.1479,"MEAN_ANOMALY":271.9832,"EPHEMERIS_TYPE":0,"NORAD_CAT_ID":51638,"ELEMENT_SET_NO":999,"REV_AT_EPOCH":21271,"BSTAR":0.00062419882,"MEAN_MOTION_DOT":0.00000231,"MEAN_MOTION_DDOT":0},{"OBJECT_NAME":"ONEWEB-0445","OBJECT_ID":"2022-012T","EPOCH":"2026-07-13T00:02:56.738976","CLASSIFICATION_TYPE":"U","MEAN_MOTION":13.10375761,"ECCENTRICITY":0.00019172,"INCLINATION":87.8823,"RA_OF_ASC_NODE":31.1118,"ARG_OF_PERICENTER":86.2868,"MEAN_ANOMALY":273.8479,"EPHEMERIS_TYPE":0,"NORAD_CAT_ID":51639,"ELEMENT_SET_NO":999,"REV_AT_EPOCH":21272,"BSTAR":0.0021183844,"MEAN_MOTION_DOT":0.00000752,"MEAN_MOTION_DDOT":0},{"OBJECT_NAME":"ONEWEB-0446","OBJECT_ID":"2022-012U","EPOCH":"2026-07-12T23:31:08.537088","CLASSIFICATION_TYPE":"U","MEAN_MOTION":13.10373479,"ECCENTRICITY":0.00019212,"INCLINATION":87.884,"RA_OF_ASC_NODE":31.1429,"ARG_OF_PERICENTER":86.4747,"MEAN_ANOMALY":273.66,"EPHEMERIS_TYPE":0,"NORAD_CAT_ID":51640,"ELEMENT_SET_NO":999,"REV_AT_EPOCH":21270,"BSTAR":0.0045626736,"MEAN_MOTION_DOT":0.00001606,"MEAN_MOTION_DDOT":0},{"OBJECT_NAME":"ONEWEB-0448","OBJECT_ID":"2022-012V","EPOCH":"2026-07-12T23:38:30.117120","CLASSIFICATION_TYPE":"U","MEAN_MOTION":13.10378744,"ECCENTRICITY":0.0001781,"INCLINATION":87.8815,"RA_OF_ASC_NODE":31.1382,"ARG_OF_PERICENTER":86.3807,"MEAN_ANOMALY":273.7524,"EPHEMERIS_TYPE":0,"NORAD_CAT_ID":51641,"ELEMENT_SET_NO":999,"REV_AT_EPOCH":21267,"BSTAR":0.0008894262,"MEAN_MOTION_DOT":0.00000323,"MEAN_MOTION_DDOT":0},{"OBJECT_NAME":"ONEWEB-0449","OBJECT_ID":"2022-012W","EPOCH":"2026-07-12T23:45:49.860288","CLASSIFICATION_TYPE":"U","MEAN_MOTION":13.10375946,"ECCENTRICITY":0.00019154,"INCLINATION":87.8817,"RA_OF_ASC_NODE":31.1244,"ARG_OF_PERICENTER":68.0559,"MEAN_ANOMALY":292.0771,"EPHEMERIS_TYPE":0,"NORAD_CAT_ID":51642,"ELEMENT_SET_NO":999,"REV_AT_EPOCH":21268,"BSTAR":0.0016618958,"MEAN_MOTION_DOT":0.00000593,"MEAN_MOTION_DDOT":0},{"OBJECT_NAME":"ONEWEB-0451","OBJECT_ID":"2022-012X","EPOCH":"2026-07-12T21:00:22.388832","CLASSIFICATION_TYPE":"U","MEAN_MOTION":13.17650974,"ECCENTRICITY":0.00017338,"INCLINATION":87.9153,"RA_OF_ASC_NODE":0.7348,"ARG_OF_PERICENTER":85.5338,"MEAN_ANOMALY":274.5991,"EPHEMERIS_TYPE":0,"NORAD_CAT_ID":51643,"ELEMENT_SET_NO":999,"REV_AT_EPOCH":21704,"BSTAR":0.000011067192,"MEAN_MOTION_DOT":1.7e-7,"MEAN_MOTION_DDOT":0},{"OBJECT_NAME":"ONEWEB-0452","OBJECT_ID":"2022-012Y","EPOCH":"2026-07-12T20:57:56.315808","CLASSIFICATION_TYPE":"U","MEAN_MOTION":13.17647604,"ECCENTRICITY":0.00015839,"INCLINATION":87.9141,"RA_OF_ASC_NODE":0.7695,"ARG_OF_PERICENTER":88.5457,"MEAN_ANOMALY":271.5856,"EPHEMERIS_TYPE":0,"NORAD_CAT_ID":51644,"ELEMENT_SET_NO":999,"REV_AT_EPOCH":21705,"BSTAR":0.000029973478,"MEAN_MOTION_DOT":2.5e-7,"MEAN_MOTION_DDOT":0},{"OBJECT_NAME":"ONEWEB-0456","OBJECT_ID":"2022-012AA","EPOCH":"2026-07-12T23:58:02.021664","CLASSIFICATION_TYPE":"U","MEAN_MOTION":13.10372563,"ECCENTRICITY":0.00017541,"INCLINATION":87.8826,"RA_OF_ASC_NODE":31.1112,"ARG_OF_PERICENTER":91.7435,"MEAN_ANOMALY":268.3893,"EPHEMERIS_TYPE":0,"NORAD_CAT_ID":51646,"ELEMENT_SET_NO":999,"REV_AT_EPOCH":21272,"BSTAR":0.0020434855,"MEAN_MOTION_DOT":0.00000726,"MEAN_MOTION_DDOT":0}]}
